0 FENGYUN 1C DEB
1 37001U 99025ECH 13284.28141251  .00001206  00000-0  76079-3 0  1643
2 37001 099.1081 299.1896 0038598 158.8916 201.4566 14.05784005281836
0 FENGYUN 1C DEB
1 37001U 99025ECH 13287.27070075  .00001231  00000-0  77625-3 0  1657
2 37001 099.1040 302.1796 0037896 150.0534 210.2811 14.05792137282258
0 FENGYUN 1C DEB
1 37001U 99025ECH 13290.25998465  .00001279  00000-0  80556-3 0  1661
2 37001 099.1048 305.1832 0036839 142.1957 218.2056 14.05801170282670
0 FENGYUN 1C DEB
1 37001U 99025ECH 13292.89337594  .00001303  00000-0  81971-3 0  1674
2 37001 099.1065 307.8315 0037465 134.6831 225.7465 14.05808937283044
0 FENGYUN 1C DEB
1 37001U 99025ECH 13295.24206275  .00001363  00000-0  85671-3 0  1685
2 37001 099.1051 310.1852 0036241 127.0403 233.4171 14.05817293283375
